KUIPER-00071            
1 64818U 25151C   25303.99876745  .00005059  00000+0  69299-3 0  9995
2 64818  51.8991 156.5663 0008060 150.0496 210.0929 14.79876124 16068
KUIPER-00072            
1 64819U 25151D   25304.25002315 -.00058706  00000+0 -51161-2 0  9997
2 64819  51.8933 136.1686 0003889 120.9657 193.4379 14.96623101  5901
KUIPER-00073            
1 64820U 25151E   25303.89724899  .00005374  00000+0  73150-3 0  9990
2 64820  51.8986 157.0122 0013596 179.7359 180.3613 14.79999449 17232
KUIPER-00074            
1 64821U 25151F   25303.97852723  .00009429  00000+0  12589-2 0  9991
2 64821  51.9001 144.1658 0012554 193.4857 166.5771 14.80063225 16238
KUIPER-00075            
1 64822U 25151G   25304.00668360  .00054214  00000+0  13538-2 0  9996
2 64822  51.8762 131.5594 0005203 166.3339 193.7790 15.39622539 16415
KUIPER-00076            
1 64823U 25151H   25304.17837217 -.00021862  00000+0 -28466-2 0  9995
2 64823  51.8981 145.7769 0004601 192.8172 167.2674 14.79944766 16239
KUIPER-00077            
1 64824U 25151J   25302.88998402  .00003844  00000+0  53325-3 0  9997
2 64824  51.8996 156.4772 0006613 139.2438 220.9020 14.79908662 15971
KUIPER-00078            
1 64825U 25151K   25303.60167320 -.00000797  00000+0 -75446-4 0  9991
2 64825  51.8980 150.8289 0007071 203.9750 156.0884 14.79880383 16114
