<?xml version="1.0" encoding="UTF-8"?>
<ndm xmlns:xsi="http://www.w3.org/2001/XMLSchema-instance" xsi:noNamespaceSchemaLocation="https://sanaregistry.org/r/ndmxml_unqualified/ndmxml-2.0.0-master-2.0.xsd">
<omm id="CCSDS_OMM_VERS" version="2.0">
<header><CREATION_DATE/><ORIGINATOR/></header><body><segment><metadata><OBJECT_NAME>KUIPER-00071</OBJECT_NAME><OBJECT_ID>2025-151C</OBJECT_ID><CENTER_NAME>EARTH</CENTER_NAME><REF_FRAME>TEME</REF_FRAME><TIME_SYSTEM>UTC</TIME_SYSTEM><MEAN_ELEMENT_THEORY>SGP4</MEAN_ELEMENT_THEORY></metadata><data><meanElements><EPOCH>2025-10-30T23:58:13.507680</EPOCH><MEAN_MOTION>14.79876124</MEAN_MOTION><ECCENTRICITY>.00080603</ECCENTRICITY><INCLINATION>51.8991</INCLINATION><RA_OF_ASC_NODE>156.5663</RA_OF_ASC_NODE><ARG_OF_PERICENTER>150.0496</ARG_OF_PERICENTER><MEAN_ANOMALY>210.0929</MEAN_ANOMALY></meanElements><tleParameters><EPHEMERIS_TYPE>0</EPHEMERIS_TYPE><CLASSIFICATION_TYPE>U</CLASSIFICATION_TYPE><NORAD_CAT_ID>64818</NORAD_CAT_ID><ELEMENT_SET_NO>999</ELEMENT_SET_NO><REV_AT_EPOCH>1606</REV_AT_EPOCH><BSTAR>.69298785E-3</BSTAR><MEAN_MOTION_DOT>.5059E-4</MEAN_MOTION_DOT><MEAN_MOTION_DDOT>0</MEAN_MOTION_DDOT></tleParameters></data></segment></body></omm>
<omm id="CCSDS_OMM_VERS" version="2.0">
<header><CREATION_DATE/><ORIGINATOR/></header><body><segment><metadata><OBJECT_NAME>KUIPER-00072</OBJECT_NAME><OBJECT_ID>2025-151D</OBJECT_ID><CENTER_NAME>EARTH</CENTER_NAME><REF_FRAME>TEME</REF_FRAME><TIME_SYSTEM>UTC</TIME_SYSTEM><MEAN_ELEMENT_THEORY>SGP4</MEAN_ELEMENT_THEORY></metadata><data><meanElements><EPOCH>2025-10-31T06:00:02.000160</EPOCH><MEAN_MOTION>14.96623101</MEAN_MOTION><ECCENTRICITY>.00038891</ECCENTRICITY><INCLINATION>51.8933</INCLINATION><RA_OF_ASC_NODE>136.1686</RA_OF_ASC_NODE><ARG_OF_PERICENTER>120.9657</ARG_OF_PERICENTER><MEAN_ANOMALY>193.4379</MEAN_ANOMALY></meanElements><tleParameters><EPHEMERIS_TYPE>0</EPHEMERIS_TYPE><CLASSIFICATION_TYPE>U</CLASSIFICATION_TYPE><NORAD_CAT_ID>64819</NORAD_CAT_ID><ELEMENT_SET_NO>999</ELEMENT_SET_NO><REV_AT_EPOCH>590</REV_AT_EPOCH><BSTAR>-.51160834E-2</BSTAR><MEAN_MOTION_DOT>-.58706E-3</MEAN_MOTION_DOT><MEAN_MOTION_DDOT>0</MEAN_MOTION_DDOT></tleParameters></data></segment></body></omm>
<omm id="CCSDS_OMM_VERS" version="2.0">
<header><CREATION_DATE/><ORIGINATOR/></header><body><segment><metadata><OBJECT_NAME>KUIPER-00073</OBJECT_NAME><OBJECT_ID>2025-151E</OBJECT_ID><CENTER_NAME>EARTH</CENTER_NAME><REF_FRAME>TEME</REF_FRAME><TIME_SYSTEM>UTC</TIME_SYSTEM><MEAN_ELEMENT_THEORY>SGP4</MEAN_ELEMENT_THEORY></metadata><data><meanElements><EPOCH>2025-10-30T21:32:02.312736</EPOCH><MEAN_MOTION>14.79999449</MEAN_MOTION><ECCENTRICITY>.00135968</ECCENTRICITY><INCLINATION>51.8986</INCLINATION><RA_OF_ASC_NODE>157.0122</RA_OF_ASC_NODE><ARG_OF_PERICENTER>179.7359</ARG_OF_PERICENTER><MEAN_ANOMALY>180.3613</MEAN_ANOMALY></meanElements><tleParameters><EPHEMERIS_TYPE>0</EPHEMERIS_TYPE><CLASSIFICATION_TYPE>U</CLASSIFICATION_TYPE><NORAD_CAT_ID>64820</NORAD_CAT_ID><ELEMENT_SET_NO>999</ELEMENT_SET_NO><REV_AT_EPOCH>1723</REV_AT_EPOCH><BSTAR>.73149504E-3</BSTAR><MEAN_MOTION_DOT>.5374E-4</MEAN_MOTION_DOT><MEAN_MOTION_DDOT>0</MEAN_MOTION_DDOT></tleParameters></data></segment></body></omm>
<omm id="CCSDS_OMM_VERS" version="2.0">
<header><CREATION_DATE/><ORIGINATOR/></header><body><segment><metadata><OBJECT_NAME>KUIPER-00074</OBJECT_NAME><OBJECT_ID>2025-151F</OBJECT_ID><CENTER_NAME>EARTH</CENTER_NAME><REF_FRAME>TEME</REF_FRAME><TIME_SYSTEM>UTC</TIME_SYSTEM><MEAN_ELEMENT_THEORY>SGP4</MEAN_ELEMENT_THEORY></metadata><data><meanElements><EPOCH>2025-10-30T23:29:04.752672</EPOCH><MEAN_MOTION>14.80063225</MEAN_MOTION><ECCENTRICITY>.00125541</ECCENTRICITY><INCLINATION>51.9001</INCLINATION><RA_OF_ASC_NODE>144.1658</RA_OF_ASC_NODE><ARG_OF_PERICENTER>193.4857</ARG_OF_PERICENTER><MEAN_ANOMALY>166.5771</MEAN_ANOMALY></meanElements><tleParameters><EPHEMERIS_TYPE>0</EPHEMERIS_TYPE><CLASSIFICATION_TYPE>U</CLASSIFICATION_TYPE><NORAD_CAT_ID>64821</NORAD_CAT_ID><ELEMENT_SET_NO>999</ELEMENT_SET_NO><REV_AT_EPOCH>1623</REV_AT_EPOCH><BSTAR>.1258941E-2</BSTAR><MEAN_MOTION_DOT>.9429E-4</MEAN_MOTION_DOT><MEAN_MOTION_DDOT>0</MEAN_MOTION_DDOT></tleParameters></data></segment></body></omm>
<omm id="CCSDS_OMM_VERS" version="2.0">
<header><CREATION_DATE/><ORIGINATOR/></header><body><segment><metadata><OBJECT_NAME>KUIPER-00075</OBJECT_NAME><OBJECT_ID>2025-151G</OBJECT_ID><CENTER_NAME>EARTH</CENTER_NAME><REF_FRAME>TEME</REF_FRAME><TIME_SYSTEM>UTC</TIME_SYSTEM><MEAN_ELEMENT_THEORY>SGP4</MEAN_ELEMENT_THEORY></metadata><data><meanElements><EPOCH>2025-10-31T00:09:37.463040</EPOCH><MEAN_MOTION>15.39622539</MEAN_MOTION><ECCENTRICITY>.00052031</ECCENTRICITY><INCLINATION>51.8762</INCLINATION><RA_OF_ASC_NODE>131.5594</RA_OF_ASC_NODE><ARG_OF_PERICENTER>166.3339</ARG_OF_PERICENTER><MEAN_ANOMALY>193.7790</MEAN_ANOMALY></meanElements><tleParameters><EPHEMERIS_TYPE>0</EPHEMERIS_TYPE><CLASSIFICATION_TYPE>U</CLASSIFICATION_TYPE><NORAD_CAT_ID>64822</NORAD_CAT_ID><ELEMENT_SET_NO>999</ELEMENT_SET_NO><REV_AT_EPOCH>1641</REV_AT_EPOCH><BSTAR>.13538259E-2</BSTAR><MEAN_MOTION_DOT>.54214E-3</MEAN_MOTION_DOT><MEAN_MOTION_DDOT>0</MEAN_MOTION_DDOT></tleParameters></data></segment></body></omm>
<omm id="CCSDS_OMM_VERS" version="2.0">
<header><CREATION_DATE/><ORIGINATOR/></header><body><segment><metadata><OBJECT_NAME>KUIPER-00076</OBJECT_NAME><OBJECT_ID>2025-151H</OBJECT_ID><CENTER_NAME>EARTH</CENTER_NAME><REF_FRAME>TEME</REF_FRAME><TIME_SYSTEM>UTC</TIME_SYSTEM><MEAN_ELEMENT_THEORY>SGP4</MEAN_ELEMENT_THEORY></metadata><data><meanElements><EPOCH>2025-10-31T04:16:51.355488</EPOCH><MEAN_MOTION>14.79944766</MEAN_MOTION><ECCENTRICITY>.00046013</ECCENTRICITY><INCLINATION>51.8981</INCLINATION><RA_OF_ASC_NODE>145.7769</RA_OF_ASC_NODE><ARG_OF_PERICENTER>192.8172</ARG_OF_PERICENTER><MEAN_ANOMALY>167.2674</MEAN_ANOMALY></meanElements><tleParameters><EPHEMERIS_TYPE>0</EPHEMERIS_TYPE><CLASSIFICATION_TYPE>U</CLASSIFICATION_TYPE><NORAD_CAT_ID>64823</NORAD_CAT_ID><ELEMENT_SET_NO>999</ELEMENT_SET_NO><REV_AT_EPOCH>1623</REV_AT_EPOCH><BSTAR>-.28465627E-2</BSTAR><MEAN_MOTION_DOT>-.21862E-3</MEAN_MOTION_DOT><MEAN_MOTION_DDOT>0</MEAN_MOTION_DDOT></tleParameters></data></segment></body></omm>
<omm id="CCSDS_OMM_VERS" version="2.0">
<header><CREATION_DATE/><ORIGINATOR/></header><body><segment><metadata><OBJECT_NAME>KUIPER-00077</OBJECT_NAME><OBJECT_ID>2025-151J</OBJECT_ID><CENTER_NAME>EARTH</CENTER_NAME><REF_FRAME>TEME</REF_FRAME><TIME_SYSTEM>UTC</TIME_SYSTEM><MEAN_ELEMENT_THEORY>SGP4</MEAN_ELEMENT_THEORY></metadata><data><meanElements><EPOCH>2025-10-29T21:21:34.619328</EPOCH><MEAN_MOTION>14.79908662</MEAN_MOTION><ECCENTRICITY>.00066136</ECCENTRICITY><INCLINATION>51.8996</INCLINATION><RA_OF_ASC_NODE>156.4772</RA_OF_ASC_NODE><ARG_OF_PERICENTER>139.2438</ARG_OF_PERICENTER><MEAN_ANOMALY>220.9020</MEAN_ANOMALY></meanElements><tleParameters><EPHEMERIS_TYPE>0</EPHEMERIS_TYPE><CLASSIFICATION_TYPE>U</CLASSIFICATION_TYPE><NORAD_CAT_ID>64824</NORAD_CAT_ID><ELEMENT_SET_NO>999</ELEMENT_SET_NO><REV_AT_EPOCH>1597</REV_AT_EPOCH><BSTAR>.53324682E-3</BSTAR><MEAN_MOTION_DOT>.3844E-4</MEAN_MOTION_DOT><MEAN_MOTION_DDOT>0</MEAN_MOTION_DDOT></tleParameters></data></segment></body></omm>
<omm id="CCSDS_OMM_VERS" version="2.0">
<header><CREATION_DATE/><ORIGINATOR/></header><body><segment><metadata><OBJECT_NAME>KUIPER-00078</OBJECT_NAME><OBJECT_ID>2025-151K</OBJECT_ID><CENTER_NAME>EARTH</CENTER_NAME><REF_FRAME>TEME</REF_FRAME><TIME_SYSTEM>UTC</TIME_SYSTEM><MEAN_ELEMENT_THEORY>SGP4</MEAN_ELEMENT_THEORY></metadata><data><meanElements><EPOCH>2025-10-30T14:26:24.564480</EPOCH><MEAN_MOTION>14.79880383</MEAN_MOTION><ECCENTRICITY>.00070715</ECCENTRICITY><INCLINATION>51.8980</INCLINATION><RA_OF_ASC_NODE>150.8289</RA_OF_ASC_NODE><ARG_OF_PERICENTER>203.9750</ARG_OF_PERICENTER><MEAN_ANOMALY>156.0884</MEAN_ANOMALY></meanElements><tleParameters><EPHEMERIS_TYPE>0</EPHEMERIS_TYPE><CLASSIFICATION_TYPE>U</CLASSIFICATION_TYPE><NORAD_CAT_ID>64825</NORAD_CAT_ID><ELEMENT_SET_NO>999</ELEMENT_SET_NO><REV_AT_EPOCH>1611</REV_AT_EPOCH><BSTAR>-.75446073E-4</BSTAR><MEAN_MOTION_DOT>-.797E-5</MEAN_MOTION_DOT><MEAN_MOTION_DDOT>0</MEAN_MOTION_DDOT></tleParameters></data></segment></body></omm>

</ndm>
